COSMOS 1408 DEB         
1 50032U 82092RU  26164.21846314  .00004415  00000+0  84391-4 0  9991
2 50032  82.5632 231.1641 0013491 269.0779  90.8926 15.47671297254244
COSMOS 1408 DEB         
1 50058U 82092SW  26164.19872505  .00066557  00000+0  33859-3 0  9994
2 50058  82.6093 236.0891 0011272 134.2036 226.0160 15.81112979256700
COSMOS 1408 DEB         
1 50621U 82092ALR 26164.24420644  .00039014  00000+0  33308-3 0  9996
2 50621  82.5662 242.4106 0021582 189.5534 170.5321 15.69004108251008
